NORAD_CAT_ID,OBJECT_NAME,OBJECT_TYPE,EPOCH,MEAN_MOTION,ECCENTRICITY,INCLINATION,RA_OF_ASC_NODE,ARG_OF_PERICENTER,MEAN_ANOMALY,BSTAR,MEAN_MOTION_DOT,MEAN_MOTION_DDOT,TLE_LINE0,TLE_LINE1,TLE_LINE2,SEMIMAJOR_AXIS,PERIOD,APOGEE,PERIGEE,DECAYED
53243.0,STARLINK-4047,PAYLOAD,2022-11-06 10:10:35,15.08841666,0.0002018,53.2162,277.6059,44.7769,315.3386,-4.1945e-05,-9.56e-06,0.0,0 STARLINK-4047,1 53243U 22086B   22310.42401769 -.00000956  00000-0 -41945-4 0  9995,2 53243  53.2162 277.6059 0002018  44.7769 315.3386 15.08841666 17194,6917.875,95.437,541.136,538.344,0.0
53243.0,STARLINK-4047,PAYLOAD,2022-11-07 05:15:13,15.08836595,0.0002172,53.2171,274.0367,39.1936,320.9213,0.00010556,1.392e-05,0.0,0 STARLINK-4047,1 53243U 22086B   22311.21890292  .00001392  00000-0  10556-3 0  9992,2 53243  53.2171 274.0367 0002172  39.1936 320.9213 15.08836595 16793,6917.891,95.438,541.258,538.253,0.0
53243.0,STARLINK-4047,PAYLOAD,2022-11-07 10:01:23,15.08813887,0.0002036,53.217,273.1438,48.2196,311.897,0.00033063,4.974e-05,0.0,0 STARLINK-4047,1 53243U 22086B   22311.41763374  .00004974  00000-0  33063-3 0  9991,2 53243  53.2170 273.1438 0002036  48.2196 311.8970 15.08813887 16821,6917.96,95.439,541.234,538.4169999999998,0.0
53243.0,STARLINK-4047,PAYLOAD,2022-11-07 14:47:32,15.08828443,0.0002188,53.2166,272.2528,44.5271,315.5896,0.00016156,2.283e-05,0.0,0 STARLINK-4047,1 53243U 22086B   22311.61634991  .00002283  00000-0  16156-3 0  9990,2 53243  53.2166 272.2528 0002188  44.5271 315.5896 15.08828443 16852,6917.916,95.438,541.294,538.2669999999998,0.0
53243.0,STARLINK-4047,PAYLOAD,2022-11-08 03:30:37,15.08835501,0.0001871,53.217,269.8726,29.0437,331.0659,0.00038836,5.897e-05,0.0,0 STARLINK-4047,1 53243U 22086B   22312.14626234  .00005897  00000-0  38836-3 0  9993,2 53243  53.2170 269.8726 0001871  29.0437 331.0659 15.08835501 16931,6917.894,95.438,541.053,538.465,0.0
53243.0,STARLINK-4047,PAYLOAD,2022-11-08 14:38:17,15.08864649,0.0002204,53.2175,267.7925,43.1018,317.0146,0.00031438,4.722e-05,0.0,0 STARLINK-4047,1 53243U 22086B   22312.60992485  .00004722  00000-0  31438-3 0  9995,2 53243  53.2175 267.7925 0002204  43.1018 317.0146 15.08864649 17006,6917.805,95.436,541.195,538.145,0.0
53243.0,STARLINK-4047,PAYLOAD,2022-11-08 20:59:50,15.08866631,0.0002318,53.2182,266.6017,47.5659,312.5529,0.00034808,5.260000000000001e-05,0.0,0 STARLINK-4047,1 53243U 22086B   22312.87488670  .00005260  00000-0  34808-3 0  9992,2 53243  53.2182 266.6017 0002318  47.5659 312.5529 15.08866631 17568,6917.799,95.436,541.268,538.06,0.0
53243.0,STARLINK-4047,PAYLOAD,2022-11-09 03:21:22,15.08874755,0.0002366,53.2171,265.4151,43.2675,316.8502,0.00041126,6.269e-05,0.0,0 STARLINK-4047,1 53243U 22086B   22313.13984003  .00006269  00000-0  41126-3 0  9994,2 53243  53.2171 265.4151 0002366  43.2675 316.8502 15.08874755 17605,6917.774,95.435,541.276,538.002,0.0
53243.0,STARLINK-4047,PAYLOAD,2022-11-09 14:29:04,15.08845634,0.0002364,53.2172,263.3306,45.601000000000006,314.5176,-0.00016536,-2.92e-05,0.0,0 STARLINK-4047,1 53243U 22086B   22313.60352750 -.00002920  00000-0 -16536-3 0  9993,2 53243  53.2172 263.3306 0002364  45.6010 314.5176 15.08845634 17158,6917.863,95.437,541.364,538.0930000000002,0.0
53243.0,STARLINK-4047,PAYLOAD,2022-11-09 20:50:37,15.08838946,0.0002205,53.2179,262.1409,52.8725,307.2469,-0.0002458,-4.198e-05,0.0,0 STARLINK-4047,1 53243U 22086B   22313.86848962 -.00004198  00000-0 -24580-3 0  9993,2 53243  53.2179 262.1409 0002205  52.8725 307.2469 15.08838946 17717,6917.884,95.438,541.274,538.2230000000002,0.0
53243.0,STARLINK-4047,PAYLOAD,2022-11-10 03:12:10,15.08831072,0.0001763,53.2168,260.9509,51.6541,308.4609,-0.00039207,-6.521e-05,0.0,0 STARLINK-4047,1 53243U 22086B   22314.13345151 -.00006521  00000-0 -39207-3 0  9990,2 53243  53.2168 260.9509 0001763  51.6541 308.4609 15.08831072 17232,6917.908,95.438,540.992,538.553,0.0
53243.0,STARLINK-4047,PAYLOAD,2022-11-10 07:58:19,15.08833524,0.0001813,53.2168,260.0599,44.547,315.5668,-0.00026097,-4.438e-05,0.0,0 STARLINK-4047,1 53243U 22086B   22314.33217129 -.00004438  00000-0 -26097-3 0  9993,2 53243  53.2168 260.0599 0001813  44.5470 315.5668 15.08833524 17788,6917.9,95.438,541.019,538.511,0.0
53243.0,STARLINK-4047,PAYLOAD,2022-11-11 03:02:57,15.08837616,0.0001824,53.2166,256.4916,36.1139,323.9976,0.00032354,4.865e-05,0.0,0 STARLINK-4047,1 53243U 22086B   22315.12705589  .00004865  00000-0  32354-3 0  9998,2 53243  53.2166 256.4916 0001824  36.1139 323.9976 15.08837616 17386,6917.888000000001,95.438,541.014,538.491,0.0
53243.0,STARLINK-4047,PAYLOAD,2022-11-11 07:49:07,15.08834793,0.0001749,53.2167,255.5996,40.1422,319.9699,0.00040494,6.162e-05,0.0,0 STARLINK-4047,1 53243U 22086B   22315.32577891  .00006162  00000-0  40494-3 0  9999,2 53243  53.2167 255.5996 0001749  40.1422 319.9699 15.08834793 17932,6917.896,95.438,540.971,538.5509999999998,0.0
53243.0,STARLINK-4047,PAYLOAD,2022-11-12 07:39:54,15.08852334,0.0001936,53.2169,251.1403,37.3339,322.7787,0.00075287,0.00011718,0.0,0 STARLINK-4047,1 53243U 22086B   22316.31937985  .00011718  00000-0  75287-3 0  9994,2 53243  53.2169 251.1403 0001936  37.3339 322.7787 15.08852334 17562,6917.843000000003,95.437,541.047,538.368,0.0
53243.0,STARLINK-4047,PAYLOAD,2022-11-13 02:44:31,15.08845623,0.0001918,53.2161,247.5709,36.1968,323.9153,0.00020619,2.995e-05,0.0,0 STARLINK-4047,1 53243U 22086B   22317.11425694  .00002995  00000-0  20619-3 0  9998,2 53243  53.2161 247.5709 0001918  36.1968 323.9153 15.08845623 17683,6917.863,95.437,541.055,538.401,0.0
53243.0,STARLINK-4047,PAYLOAD,2022-11-13 05:55:18,15.0884231,0.0001938,53.2159,246.9762,35.4048,324.7073,0.00011097,1.478e-05,0.0,0 STARLINK-4047,1 53243U 22086B   22317.24673768  .00001478  00000-0  11097-3 0  9994,2 53243  53.2159 246.9762 0001938  35.4048 324.7073 15.08842310 18226,6917.873000000001,95.437,541.0790000000002,538.398,0.0
53243.0,STARLINK-4047,PAYLOAD,2022-11-14 02:35:19,15.08830466,0.0002017,53.2164,243.1111,44.9795,315.1361,-0.00010654,-1.983e-05,0.0,0 STARLINK-4047,1 53243U 22086B   22318.10786912 -.00001983  00000-0 -10654-3 0  9997,2 53243  53.2164 243.1111 0002017  44.9795 315.1361 15.08830466 17831,6917.91,95.438,541.17,538.379,0.0
53243.0,STARLINK-4047,PAYLOAD,2022-11-14 12:07:38,15.08837823,0.0001996,53.2166,241.3273,45.5513,314.5643,1.611e-05,-3.2e-07,0.0,0 STARLINK-4047,1 53243U 22086B   22318.50530732 -.00000032  00000-0  16110-4 0  9995,2 53243  53.2166 241.3273 0001996  45.5513 314.5643 15.08837823 17898,6917.887,95.438,541.133,538.371,0.0
53243.0,STARLINK-4047,PAYLOAD,2022-11-15 11:58:25,15.08842181,0.0001949,53.2158,236.8667,43.3422,316.7723,0.00028935,4.320000000000001e-05,0.0,0 STARLINK-4047,1 53243U 22086B   22319.49891047  .00004320  00000-0  28935-3 0  9993,2 53243  53.2158 236.8667 0001949  43.3422 316.7723 15.08842181 18569,6917.874,95.437,541.087,538.39,0.0
53243.0,STARLINK-4047,PAYLOAD,2022-11-16 00:41:30,15.08841621,0.0001917,53.2156,234.4877,42.0325,318.0814,0.00018564,2.668e-05,0.0,0 STARLINK-4047,1 53243U 22086B   22320.02883060  .00002668  00000-0  18564-3 0  9990,2 53243  53.2156 234.4877 0001917  42.0325 318.0814 15.08841621 18123,6917.875,95.437,541.067,538.414,0.0
53243.0,STARLINK-4047,PAYLOAD,2022-11-16 07:03:03,15.08844554,0.0001934,53.2155,233.2983,42.2391,317.875,0.00021256,3.097e-05,0.0,0 STARLINK-4047,1 53243U 22086B   22320.29378963  .00003097  00000-0  21256-3 0  9999,2 53243  53.2155 233.2983 0001934  42.2391 317.8750 15.08844554 18686,6917.866,95.437,541.069,538.394,0.0
53243.0,STARLINK-4047,PAYLOAD,2022-11-17 02:07:41,15.08841461,0.0002009,53.2162,229.7299,43.3606,316.7544,0.00013194,1.812e-05,0.0,0 STARLINK-4047,1 53243U 22086B   22321.08867251  .00001812  00000-0  13194-3 0  9995,2 53243  53.2162 229.7299 0002009  43.3606 316.7544 15.08841461 18288,6917.876,95.437,541.131,538.351,0.0
53243.0,STARLINK-4047,PAYLOAD,2022-11-17 05:18:27,15.08845875,0.0002006,53.2161,229.1351,43.6263,316.4887,0.00019147,2.761e-05,0.0,0 STARLINK-4047,1 53243U 22086B   22321.22115057  .00002761  00000-0  19147-3 0  9999,2 53243  53.2161 229.1351 0002006  43.6263 316.4887 15.08845875 18829,6917.861999999999,95.437,541.115,538.34,0.0
53243.0,STARLINK-4047,PAYLOAD,2022-11-17 19:36:55,15.08843435,0.0002056,53.2163,226.4586,45.3266,314.7893,7.086399999999999e-05,8.400000000000001e-06,0.0,0 STARLINK-4047,1 53243U 22086B   22321.81731057  .00000840  00000-0  70864-4 0  9998,2 53243  53.2163 226.4586 0002056  45.3266 314.7893 15.08843435 18916,6917.87,95.437,541.1569999999998,538.313,0.0
53243.0,STARLINK-4047,PAYLOAD,2022-11-18 03:33:51,15.08841661,0.0002025,53.2162,224.9723,44.6144,315.5011,9.965e-05,1.298e-05,0.0,0 STARLINK-4047,1 53243U 22086B   22322.14851128  .00001298  00000-0  99650-4 0  9999,2 53243  53.2162 224.9723 0002025  44.6144 315.5011 15.08841661 18442,6917.875,95.437,541.141,538.339,0.0
53243.0,STARLINK-4047,PAYLOAD,2022-11-19 09:46:11,15.08835779,0.0002161,53.2166,219.3218,44.3119,315.8046,-3.1212e-05,-7.85e-06,0.0,0 STARLINK-4047,1 53243U 22086B   22323.40707608 -.00000785  00000-0 -31212-4 0  9994,2 53243  53.2166 219.3218 0002161  44.3119 315.8046 15.08835779 18638,6917.893,95.438,541.253,538.263,0.0
53243.0,STARLINK-4047,PAYLOAD,2022-11-20 09:36:56,15.08886464,0.0002213,53.2185,214.8604,29.0203,331.0912,-0.00083818,-0.00013621,0.0,0 STARLINK-4047,1 53243U 22086B   22324.40065737 -.00013621  00000-0 -83818-3 0  9996,2 53243  53.2185 214.8604 0002213  29.0203 331.0912 15.08886464 18785,6917.738,95.435,541.134,538.072,0.0
53243.0,STARLINK-4047,PAYLOAD,2022-11-20 17:33:54,15.08833841,0.0002027,53.2167,213.3747,35.3367,324.7759,-6.6435e-06,-3.94e-06,0.0,0 STARLINK-4047,1 53243U 22086B   22324.73188379 -.00000394  00000-0 -66435-5 0  9991,2 53243  53.2167 213.3747 0002027  35.3367 324.7759 15.08833841 18836,6917.899,95.438,541.1659999999998,538.362,0.0
